{"type": "FeatureCollection", "features": [ {"type": "Feature", "properties": {"norad_id": 32183, "name": "FENGYUN 1C DEB", "group": "fengyun-1c-debris", "lat": 78.25860239195504, "lon": -93.05914341602094, "alt_km": 828.3358087398537, "timestamp": "2025-12-14T05:42:18.746153+00:00", "meta": {"OBJECT_NAME": "FENGYUN 1C DEB", "OBJECT_ID": "1999-025CUD", "EPOCH": "2025-12-12T08:58:08.411808", "MEAN_MOTION": 14.10083628, "ECCENTRICITY": 0.00428392, "INCLINATION": 98.7133, "RA_OF_ASC_NODE": 37.5876, "ARG_OF_PERICENTER": 61.9677, "MEAN_ANOMALY": 298.5817, "EPHEMERIS_TYPE": 0, "CLASSIFICATION_TYPE": "U", "NORAD_CAT_ID": 32183, "ELEMENT_SET_NO": 999, "REV_AT_EPOCH": 72759, "BSTAR": 0.00097760339, "MEAN_MOTION_DOT": 1.7e-05, "MEAN_MOTION_DDOT": 0}, "tle": {"line1": "1 32183U 99025CUD 25346.37370847  .00001700  00000+0  97760-3 0  9990", "line2": "2 32183  98.7133  37.5876 0042839  61.9677 298.5817 14.10083628727591"}}, "geometry": {"type": "Point", "coordinates": [-93.05914341602094, 78.25860239195504]}}, {"type": "Feature", "properties": {"norad_id": 32184, "name": "FENGYUN 1C DEB", "group": "fengyun-1c-debris", "lat": -66.360973151222, "lon": 146.78111644340075, "alt_km": 410.3167643431316, "timestamp": "2025-12-14T05:42:18.746164+00:00", "meta": {"OBJECT_NAME": "FENGYUN 1C DEB", "OBJECT_ID": "1999-025CUE", "EPOCH": "2025-12-13T15:59:48.748416", "MEAN_MOTION": 15.44060107, "ECCENTRICITY": 0.00706647, "INCLINATION": 98.1196, "RA_OF_ASC_NODE": 127.1063, "ARG_OF_PERICENTER": 344.8582, "MEAN_ANOMALY": 15.0547, "EPHEMERIS_TYPE": 0, "CLASSIFICATION_TYPE": "U", "NORAD_CAT_ID": 32184, "ELEMENT_SET_NO": 999, "REV_AT_EPOCH": 98418, "BSTAR": 0.0016307399, "MEAN_MOTION_DOT": 0.00082383, "MEAN_MOTION_DDOT": 0}, "tle": {"line1": "1 32184U 99025CUE 25347.66653644  .00082383  00000+0  16307-2 0  9996", "line2": "2 32184  98.1196 127.1063 0070664 344.8582  15.0547 15.44060107984181"}}, "geometry": {"type": "Point", "coordinates": [146.78111644340075, -66.360973151222]}}, {"type": "Feature", "properties": {"norad_id": 32185, "name": "FENGYUN 1C DEB", "group": "fengyun-1c-debris", "lat": -61.278136819183565, "lon": -148.64959436192882, "alt_km": 527.8929191412144, "timestamp": "2025-12-14T05:42:18.746174+00:00", "meta": {"OBJECT_NAME": "FENGYUN 1C DEB", "OBJECT_ID": "1999-025CUF", "EPOCH": "2025-12-12T20:26:16.674432", "MEAN_MOTION": 15.03513585, "ECCENTRICITY": 0.01622146, "INCLINATION": 98.905, "RA_OF_ASC_NODE": 193.1299, "ARG_OF_PERICENTER": 14.9089, "MEAN_ANOMALY": 345.6833, "EPHEMERIS_TYPE": 0, "CLASSIFICATION_TYPE": "U", "NORAD_CAT_ID": 32185, "ELEMENT_SET_NO": 999, "REV_AT_EPOCH": 95017, "BSTAR": 0.0041779735, "MEAN_MOTION_DOT": 0.00076781, "MEAN_MOTION_DDOT": 0}, "tle": {"line1": "1 32185U 99025CUF 25346.85158188  .00076781  00000+0  41780-2 0  9998", "line2": "2 32185  98.9050 193.1299 0162214  14.9089 345.6833 15.03513585950173"}}, "geometry": {"type": "Point", "coordinates": [-148.64959436192882, -61.278136819183565]}}, {"type": "Feature", "properties": {"norad_id": 32186, "name": "FENGYUN 1C DEB", "group": "fengyun-1c-debris", "lat": -79.5582899051101, "lon": 151.91581920362708, "alt_km": 906.6689039347511, "timestamp": "2025-12-14T05:42:18.746184+00:00", "meta": {"OBJECT_NAME": "FENGYUN 1C DEB", "OBJECT_ID": "1999-025CUG", "EPOCH": "2025-12-09T09:24:32.827968", "MEAN_MOTION": 13.76498707, "ECCENTRICITY": 0.02746783, "INCLINATION": 99.6097, "RA_OF_ASC_NODE": 33.8435, "ARG_OF_PERICENTER": 209.4403, "MEAN_ANOMALY": 173.7978, "EPHEMERIS_TYPE": 0, "CLASSIFICATION_TYPE": "U", "NORAD_CAT_ID": 32186, "ELEMENT_SET_NO": 999, "REV_AT_EPOCH": 62564, "BSTAR": 0.0015629135, "MEAN_MOTION_DOT": 1.972e-05, "MEAN_MOTION_DDOT": 0}, "tle": {"line1": "1 32186U 99025CUG 25343.39204662  .00001972  00000+0  15629-2 0  9997", "line2": "2 32186  99.6097  33.8435 0274678 209.4403 173.7978 13.76498707625641"}}, "geometry": {"type": "Point", "coordinates": [151.91581920362708, -79.5582899051101]}}, {"type": "Feature", "properties": {"norad_id": 32187, "name": "FENGYUN 1C DEB", "group": "fengyun-1c-debris", "lat": -67.80522865259454, "lon": 91.37737647227942, "alt_km": 1261.8325177352262, "timestamp": "2025-12-14T05:42:18.746195+00:00", "meta": {"OBJECT_NAME": "FENGYUN 1C DEB", "OBJECT_ID": "1999-025CUH", "EPOCH": "2025-12-12T04:25:44.596416", "MEAN_MOTION": 13.50496102, "ECCENTRICITY": 0.02944417, "INCLINATION": 99.5053, "RA_OF_ASC_NODE": 65.1685, "ARG_OF_PERICENTER": 147.3043, "MEAN_ANOMALY": 244.1082, "EPHEMERIS_TYPE": 0, "CLASSIFICATION_TYPE": "U", "NORAD_CAT_ID": 32187, "ELEMENT_SET_NO": 999, "REV_AT_EPOCH": 66251, "BSTAR": 0.00072461752, "MEAN_MOTION_DOT": 5.68e-06, "MEAN_MOTION_DDOT": 0}, "tle": {"line1": "1 32187U 99025CUH 25346.18454394  .00000568  00000+0  72462-3 0  9996", "line2": "2 32187  99.5053  65.1685 0294441 147.3043 244.1082 13.50496102662513"}}, "geometry": {"type": "Point", "coordinates": [91.37737647227942, -67.80522865259454]}}, {"type": "Feature", "properties": {"norad_id": 32191, "name": "FENGYUN 1C DEB", "group": "fengyun-1c-debris", "lat": 76.86294134512853, "lon": 3.2868804652972967, "alt_km": 813.8402081169015, "timestamp": "2025-12-14T05:42:18.746205+00:00", "meta": {"OBJECT_NAME": "FENGYUN 1C DEB", "OBJECT_ID": "1999-025CUM", "EPOCH": "2025-12-12T09:31:01.273728", "MEAN_MOTION": 14.25192776, "ECCENTRICITY": 0.0093788, "INCLINATION": 98.7073, "RA_OF_ASC_NODE": 42.503, "ARG_OF_PERICENTER": 187.4274, "MEAN_ANOMALY": 172.5522, "EPHEMERIS_TYPE": 0, "CLASSIFICATION_TYPE": "U", "NORAD_CAT_ID": 32191, "ELEMENT_SET_NO": 999, "REV_AT_EPOCH": 64496, "BSTAR": 0.002278977, "MEAN_MOTION_DOT": 5.565e-05, "MEAN_MOTION_DDOT": 0}, "tle": {"line1": "1 32191U 99025CUM 25346.39654252  .00005565  00000+0  22790-2 0  9999", "line2": "2 32191  98.7073  42.5030 0093788 187.4274 172.5522 14.25192776644961"}}, "geometry": {"type": "Point", "coordinates": [3.2868804652972967, 76.86294134512853]}}, {"type": "Feature", "properties": {"norad_id": 32192, "name": "FENGYUN 1C DEB", "group": "fengyun-1c-debris", "lat": -11.274318103853652, "lon": -139.268496464376, "alt_km": 1090.1514716238153, "timestamp": "2025-12-14T05:42:18.746215+00:00", "meta": {"OBJECT_NAME": "FENGYUN 1C DEB", "OBJECT_ID": "1999-025CUN", "EPOCH": "2025-12-10T02:45:21.500352", "MEAN_MOTION": 13.82509568, "ECCENTRICITY": 0.01815944, "INCLINATION": 98.6529, "RA_OF_ASC_NODE": 215.2024, "ARG_OF_PERICENTER": 169.561, "MEAN_ANOMALY": 190.9397, "EPHEMERIS_TYPE": 0, "CLASSIFICATION_TYPE": "U", "NORAD_CAT_ID": 32192, "ELEMENT_SET_NO": 999, "REV_AT_EPOCH": 92676, "BSTAR": 0.00038665557, "MEAN_MOTION_DOT": 4.37e-06, "MEAN_MOTION_DDOT": 0}, "tle": {"line1": "1 32192U 99025CUN 25344.11483218  .00000437  00000+0  38666-3 0  9993", "line2": "2 32192  98.6529 215.2024 0181594 169.5610 190.9397 13.82509568926765"}}, "geometry": {"type": "Point", "coordinates": [-139.268496464376, -11.274318103853652]}}, {"type": "Feature", "properties": {"norad_id": 32195, "name": "FENGYUN 1C DEB", "group": "fengyun-1c-debris", "lat": 31.740437895065963, "lon": -14.873579736610505, "alt_km": 867.5592666564171, "timestamp": "2025-12-14T05:42:18.746226+00:00", "meta": {"OBJECT_NAME": "FENGYUN 1C DEB", "OBJECT_ID": "1999-025CUR", "EPOCH": "2025-12-04T06:51:46.584576", "MEAN_MOTION": 14.08440247, "ECCENTRICITY": 0.0068891, "INCLINATION": 98.773, "RA_OF_ASC_NODE": 340.9294, "ARG_OF_PERICENTER": 324.3515, "MEAN_ANOMALY": 35.3064, "EPHEMERIS_TYPE": 0, "CLASSIFICATION_TYPE": "U", "NORAD_CAT_ID": 32195, "ELEMENT_SET_NO": 999, "REV_AT_EPOCH": 63863, "BSTAR": 0.0010039, "MEAN_MOTION_DOT": 1.715e-05, "MEAN_MOTION_DDOT": 0}, "tle": {"line1": "1 32195U 99025CUR 25338.28595584  .00001715  00000+0  10039-2 0  9990", "line2": "2 32195  98.7730 340.9294 0068891 324.3515  35.3064 14.08440247638633"}}, "geometry": {"type": "Point", "coordinates": [-14.873579736610505, 31.740437895065963]}}, {"type": "Feature", "properties": {"norad_id": 32197, "name": "FENGYUN 1C DEB", "group": "fengyun-1c-debris", "lat": -73.10722738290643, "lon": -71.57288426396336, "alt_km": 729.2121068620027, "timestamp": "2025-12-14T05:42:18.746236+00:00", "meta": {"OBJECT_NAME": "FENGYUN 1C DEB", "OBJECT_ID": "1999-025CUT", "EPOCH": "2025-12-13T12:29:47.615136", "MEAN_MOTION": 14.32670821, "ECCENTRICITY": 0.01611933, "INCLINATION": 98.9011, "RA_OF_ASC_NODE": 256.6231, "ARG_OF_PERICENTER": 227.5743, "MEAN_ANOMALY": 319.2426, "EPHEMERIS_TYPE": 0, "CLASSIFICATION_TYPE": "U", "NORAD_CAT_ID": 32197, "ELEMENT_SET_NO": 999, "REV_AT_EPOCH": 94434, "BSTAR": 0.00063761997, "MEAN_MOTION_DOT": 1.951e-05, "MEAN_MOTION_DDOT": 0}, "tle": {"line1": "1 32197U 99025CUT 25347.52068999  .00001951  00000+0  63762-3 0  9998", "line2": "2 32197  98.9011 256.6231 0161193 227.5743 319.2426 14.32670821944343"}}, "geometry": {"type": "Point", "coordinates": [-71.57288426396336, -73.10722738290643]}}, {"type": "Feature", "properties": {"norad_id": 32198, "name": "FENGYUN 1C DEB", "group": "fengyun-1c-debris", "lat": 21.89916176379036, "lon": -41.60372286195846, "alt_km": 907.324394351318, "timestamp": "2025-12-14T05:42:18.746246+00:00", "meta": {"OBJECT_NAME": "FENGYUN 1C DEB", "OBJECT_ID": "1999-025CUU", "EPOCH": "2025-12-13T03:22:57.731808", "MEAN_MOTION": 14.08832276, "ECCENTRICITY": 0.00952772, "INCLINATION": 98.3426, "RA_OF_ASC_NODE": 133.9993, "ARG_OF_PERICENTER": 291.2322, "MEAN_ANOMALY": 67.8694, "EPHEMERIS_TYPE": 0, "CLASSIFICATION_TYPE": "U", "NORAD_CAT_ID": 32198, "ELEMENT_SET_NO": 999, "REV_AT_EPOCH": 56951, "BSTAR": 0.0025895328, "MEAN_MOTION_DOT": 4.623e-05, "MEAN_MOTION_DDOT": 0}, "tle": {"line1": "1 32198U 99025CUU 25347.14094597  .00004623  00000+0  25895-2 0  9993", "line2": "2 32198  98.3426 133.9993 0095277 291.2322  67.8694 14.08832276569512"}}, "geometry": {"type": "Point", "coordinates": [-41.60372286195846, 21.89916176379036]}}]}